OBJECT_NAME,OBJECT_ID,EPOCH,MEAN_MOTION,ECCENTRICITY,INCLINATION,RA_OF_ASC_NODE,ARG_OF_PERICENTER,MEAN_ANOMALY,EPHEMERIS_TYPE,CLASSIFICATION_TYPE,NORAD_CAT_ID,ELEMENT_SET_NO,REV_AT_EPOCH,BSTAR,MEAN_MOTION_DOT,MEAN_MOTION_DDOT
LEMUR-2-LAILA,2025-276DQ,2026-06-13T05:00:17.874144,15.21230511,.00019753,97.4182,238.1549,141.1445,218.9933,0,U,66776,999,2984,.28232598E-3,.6235E-4,0
LEMUR-2-CELIJO-SB-PK,2025-276DW,2026-06-13T04:01:00.467328,14.99931790,.0008929,97.5275,235.0759,142.0489,218.1365,0,U,66781,999,2202,.59165978E-3,.7296E-4,0
LEMUR-2-FINNIAN,2025-276DX,2026-06-13T03:29:23.881920,15.00328903,.0008797,97.5280,235.2652,101.3150,258.9063,0,U,66782,999,1939,.55478458E-3,.6909E-4,0
LEMUR-2-STARLIGHT,2025-276DY,2026-06-13T03:57:28.191168,14.99003390,.001527,97.5279,234.9406,139.1587,221.0784,0,U,66783,999,2959,.44409739E-3,.5338E-4,0
LEMUR-2-TARTIFLETTE,2025-276DZ,2026-06-13T10:19:52.810176,14.99037382,.00139776,97.5281,235.2038,144.3109,215.9052,0,U,66784,999,2963,.50274178E-3,.6054E-4,0
LEMUR-2-VUKASIN,2025-276EA,2026-06-13T10:15:25.155072,15.00329472,.00063052,97.5317,235.4875,132.6453,227.5303,0,U,66785,999,2958,.48821533E-3,.607E-4,0
LEMUR-2-MYRA,2025-276EC,2026-06-13T11:00:16.528896,15.00193729,.0016141,97.5225,235.4617,153.7289,206.4757,0,U,66787,999,2965,.57166964E-3,.711E-4,0
LEMUR-2 FIKRETDENGIZ,2026-004A,2026-06-13T13:42:18.246528,14.88301617,.00097509,97.8008,163.1848,143.2109,216.9779,0,U,67363,999,2274,.39686946E-3,.3618E-4,0
TWILIGHT-1 OBJECT B,2026-004B,2026-06-13T12:38:30.825024,14.87690979,.0009732,97.8061,163.1580,134.7264,225.4747,0,U,67364,999,2274,.19697782E-3,.1741E-4,0
LEMUR-2-MARIO-SOUSA,2026-004C,2026-06-13T13:19:22.393056,14.88488412,.00094099,97.7984,163.1654,143.5861,216.5998,0,U,67365,999,2275,.51185878E-3,.4705E-4,0
LEMUR-2-SONNENBLUME,2026-004E,2026-06-13T13:16:22.717344,14.88299317,.00088918,97.7980,163.1493,145.6012,214.5782,0,U,67367,999,2275,.3262257E-3,.2964E-4,0
LEMUR-2-WOBLER,2026-004F,2026-06-13T13:07:41.922336,14.88494673,.00093447,97.8033,163.2619,135.5293,224.6675,0,U,67368,999,2275,.45559369E-3,.4182E-4,0
LEMUR-2-GRAM-E-SUE,2026-004H,2026-06-13T06:26:51.863712,14.88455202,.0007934,97.7966,162.8843,146.9059,213.2655,0,U,67370,999,2271,.29276E-3,.2664E-4,0
LEMUR-2-HCS-BAZUS,2026-004AB,2026-06-13T14:16:42.819456,14.90037070,.00043372,97.8013,163.6340,97.1042,263.0669,0,U,67388,999,2277,.5455856E-3,.5213E-4,0
