{"fetched_at":"2026-06-14T08:17:21Z","count":15259,"tles":[{"name":"LEMUR-2-GRAM-E-SUE","line1":"1 67370U 26004H   26164.26865583  .00002664  00000+0  29276-3 0  9993","line2":"2 67370  97.7966 162.8843 0007934 146.9059 213.2655 14.88455202 22713","category":"Other"},{"name":"LEMUR-2-HCS-BAZUS","line1":"1 67388U 26004AB  26164.59494004  .00005213  00000+0  54559-3 0  9999","line2":"2 67388  97.8013 163.6340 0004337  97.1042 263.0669 14.90037070 22776","category":"Other"},{"name":"LEMUR-2-LAILA","line1":"1 66776U 25276DQ  26164.20854021  .00006235  00000+0  28233-3 0  9991","line2":"2 66776  97.4182 238.1549 0001975 141.1445 218.9933 15.21230511 29848","category":"Other"},{"name":"LEMUR-2-CELIJO-SB-PK","line1":"1 66781U 25276DW  26164.16736652  .00007296  00000+0  59166-3 0  9998","line2":"2 66781  97.5275 235.0759 0008929 142.0489 218.1365 14.99931790 22026","category":"Other"},{"name":"LEMUR-2-FINNIAN","line1":"1 66782U 25276DX  26164.14541530  .00006909  00000+0  55478-3 0  9998","line2":"2 66782  97.5280 235.2652 0008797 101.3150 258.9063 15.00328903 19395","category":"Other"},{"name":"LEMUR-2-STARLIGHT","line1":"1 66783U 25276DY  26164.16490962  .00005338  00000+0  44410-3 0  9992","line2":"2 66783  97.5279 234.9406 0015270 139.1587 221.0784 14.99003390 29595","category":"Other"},{"name":"LEMUR-2 FIKRETDENGIZ","line1":"1 67363U 26004A   26164.57104452  .00003618  00000+0  39687-3 0  9997","line2":"2 67363  97.8008 163.1848 0009750 143.2109 216.9779 14.88301617 22746","category":"Other"},{"name":"TWILIGHT-1 OBJECT B","line1":"1 67364U 26004B   26164.52674566  .00001741  00000+0  19698-3 0  9996","line2":"2 67364  97.8061 163.1580 0009732 134.7264 225.4747 14.87690979 22747","category":"Other"},{"name":"LEMUR-2-TARTIFLETTE","line1":"1 66784U 25276DZ  26164.43047234  .00006054  00000+0  50274-3 0  9994","line2":"2 66784  97.5281 235.2038 0013977 144.3109 215.9052 14.99037382 29637","category":"Other"},{"name":"LEMUR-2-VUKASIN","line1":"1 66785U 25276EA  26164.42737448  .00006070  00000+0  48822-3 0  9991","line2":"2 66785  97.5317 235.4875 0006305 132.6453 227.5303 15.00329472 29587","category":"Other"},{"name":"LEMUR-2-MARIO-SOUSA","line1":"1 67365U 26004C   26164.55512029  .00004705  00000+0  51186-3 0  9996","line2":"2 67365  97.7984 163.1654 0009409 143.5861 216.5998 14.88488412 22753","category":"Other"},{"name":"LEMUR-2-MYRA","line1":"1 66787U 25276EC  26164.45852464  .00007110  00000+0  57167-3 0  9990","line2":"2 66787  97.5225 235.4617 0016141 153.7289 206.4757 15.00193729 29652","category":"Other"},{"name":"LEMUR-2-SONNENBLUME","line1":"1 67367U 26004E   26164.55304071  .00002964  00000+0  32623-3 0  9994","line2":"2 67367  97.7980 163.1493 0008891 145.6012 214.5782 14.88299317 22750","category":"Other"},{"name":"LEMUR-2-WOBLER","line1":"1 67368U 26004F   26164.54701299  .00004182  00000+0  45559-3 0  9993","line2":"2 67368  97.8033 163.2619 0009344 135.5293 224.6675 14.88494673 22750","category":"Other"}]}